[Satellite]
VERSION=1.1
NAME=AGILE
NICKNAME=AGILE
TLE1=1 31135U 07013A   19316.47888613  .00002260  00000-0  35130-4 0  9995
TLE2=2 31135   2.4676  97.3607 0011995  11.0241 349.0075 15.31893078331163
STATUS=0
